[{"OBJECT_NAME":"STARLINK-11223 [DTC]","OBJECT_ID":"2024-133G","EPOCH":"2025-08-20T12:57:19.852704","MEAN_MOTION":15.6970757,"ECCENTRICITY":9.28e-5,"INCLINATION":53.158,"RA_OF_ASC_NODE":57.6418,"ARG_OF_PERICENTER":77.9173,"MEAN_ANOMALY":282.1948,"EPHEMERIS_TYPE":0,"CLASSIFICATION_TYPE":"U","NORAD_CAT_ID":60307,"ELEMENT_SET_NO":999,"REV_AT_EPOCH":6212,"BSTAR":-5.0386e-6,"MEAN_MOTION_DOT":-1.199e-5,"MEAN_MOTION_DDOT":0},{"OBJECT_NAME":"STARLINK-11192 [DTC]","OBJECT_ID":"2024-133H","EPOCH":"2025-08-20T13:04:23.596320","MEAN_MOTION":15.6970534,"ECCENTRICITY":9.54e-5,"INCLINATION":53.16,"RA_OF_ASC_NODE":57.6737,"ARG_OF_PERICENTER":74.1705,"MEAN_ANOMALY":285.9418,"EPHEMERIS_TYPE":0,"CLASSIFICATION_TYPE":"U","NORAD_CAT_ID":60308,"ELEMENT_SET_NO":999,"REV_AT_EPOCH":6219,"BSTAR":6.2478e-6,"MEAN_MOTION_DOT":1.68e-6,"MEAN_MOTION_DDOT":0},{"OBJECT_NAME":"STARLINK-11213 [DTC]","OBJECT_ID":"2024-133J","EPOCH":"2025-08-20T12:50:16.185120","MEAN_MOTION":15.69687819,"ECCENTRICITY":0.000231,"INCLINATION":53.1599,"RA_OF_ASC_NODE":57.6102,"ARG_OF_PERICENTER":112.0131,"MEAN_ANOMALY":248.1133,"EPHEMERIS_TYPE":0,"CLASSIFICATION_TYPE":"U","NORAD_CAT_ID":60309,"ELEMENT_SET_NO":999,"REV_AT_EPOCH":6203,"BSTAR":-8.6538e-6,"MEAN_MOTION_DOT":-1.638e-5,"MEAN_MOTION_DDOT":0},{"OBJECT_NAME":"STARLINK-11200 [DTC]","OBJECT_ID":"2024-133K","EPOCH":"2025-08-19T19:54:40.697280","MEAN_MOTION":15.69708429,"ECCENTRICITY":7.08e-5,"INCLINATION":53.1593,"RA_OF_ASC_NODE":61.0296,"ARG_OF_PERICENTER":69.921,"MEAN_ANOMALY":290.1884,"EPHEMERIS_TYPE":0,"CLASSIFICATION_TYPE":"U","NORAD_CAT_ID":60310,"ELEMENT_SET_NO":999,"REV_AT_EPOCH":6203,"BSTAR":-5.2856e-6,"MEAN_MOTION_DOT":-1.228e-5,"MEAN_MOTION_DDOT":0},{"OBJECT_NAME":"STARLINK-11206 [DTC]","OBJECT_ID":"2024-133M","EPOCH":"2025-08-20T12:29:12.963552","MEAN_MOTION":15.69712339,"ECCENTRICITY":0.0001073,"INCLINATION":53.1586,"RA_OF_ASC_NODE":58.2442,"ARG_OF_PERICENTER":86.0995,"MEAN_ANOMALY":274.0146,"EPHEMERIS_TYPE":0,"CLASSIFICATION_TYPE":"U","NORAD_CAT_ID":60312,"ELEMENT_SET_NO":999,"REV_AT_EPOCH":6210,"BSTAR":1.5132e-5,"MEAN_MOTION_DOT":1.245e-5,"MEAN_MOTION_DDOT":0},{"OBJECT_NAME":"STARLINK-11205 [DTC]","OBJECT_ID":"2024-133N","EPOCH":"2025-08-20T12:22:09.331392","MEAN_MOTION":15.69702682,"ECCENTRICITY":9.2e-5,"INCLINATION":53.1589,"RA_OF_ASC_NODE":58.2106,"ARG_OF_PERICENTER":47.5279,"MEAN_ANOMALY":312.5816,"EPHEMERIS_TYPE":0,"CLASSIFICATION_TYPE":"U","NORAD_CAT_ID":60313,"ELEMENT_SET_NO":999,"REV_AT_EPOCH":6202,"BSTAR":7.0011e-6,"MEAN_MOTION_DOT":2.6e-6,"MEAN_MOTION_DDOT":0},{"OBJECT_NAME":"STARLINK-32191","OBJECT_ID":"2024-133P","EPOCH":"2025-08-20T01:42:18.914400","MEAN_MOTION":15.30199143,"ECCENTRICITY":0.0001197,"INCLINATION":53.16,"RA_OF_ASC_NODE":153.414,"ARG_OF_PERICENTER":86.4701,"MEAN_ANOMALY":273.6436,"EPHEMERIS_TYPE":0,"CLASSIFICATION_TYPE":"U","NORAD_CAT_ID":60314,"ELEMENT_SET_NO":999,"REV_AT_EPOCH":6083,"BSTAR":3.8757e-5,"MEAN_MOTION_DOT":7.89e-6,"MEAN_MOTION_DDOT":0},{"OBJECT_NAME":"STARLINK-32194","OBJECT_ID":"2024-133Q","EPOCH":"2025-08-20T11:27:55.134144","MEAN_MOTION":15.30192228,"ECCENTRICITY":0.0001249,"INCLINATION":53.1608,"RA_OF_ASC_NODE":151.6901,"ARG_OF_PERICENTER":79.8794,"MEAN_ANOMALY":280.2347,"EPHEMERIS_TYPE":0,"CLASSIFICATION_TYPE":"U","NORAD_CAT_ID":60315,"ELEMENT_SET_NO":999,"REV_AT_EPOCH":6087,"BSTAR":-5.7531e-6,"MEAN_MOTION_DOT":-5.29e-6,"MEAN_MOTION_DDOT":0},{"OBJECT_NAME":"STARLINK-32192","OBJECT_ID":"2024-133R","EPOCH":"2025-08-20T12:08:47.063328","MEAN_MOTION":15.30189762,"ECCENTRICITY":0.0001424,"INCLINATION":53.1608,"RA_OF_ASC_NODE":151.1553,"ARG_OF_PERICENTER":84.9422,"MEAN_ANOMALY":275.1741,"EPHEMERIS_TYPE":0,"CLASSIFICATION_TYPE":"U","NORAD_CAT_ID":60316,"ELEMENT_SET_NO":999,"REV_AT_EPOCH":6093,"BSTAR":2.3279e-6,"MEAN_MOTION_DOT":-2.9e-6,"MEAN_MOTION_DDOT":0},{"OBJECT_NAME":"STARLINK-32189","OBJECT_ID":"2024-133S","EPOCH":"2025-08-19T22:52:27.117696","MEAN_MOTION":15.30194449,"ECCENTRICITY":0.000116,"INCLINATION":53.1595,"RA_OF_ASC_NODE":154.1011,"ARG_OF_PERICENTER":94.8267,"MEAN_ANOMALY":265.2867,"EPHEMERIS_TYPE":0,"CLASSIFICATION_TYPE":"U","NORAD_CAT_ID":60317,"ELEMENT_SET_NO":999,"REV_AT_EPOCH":6084,"BSTAR":-1.5607e-5,"MEAN_MOTION_DOT":-8.21e-6,"MEAN_MOTION_DDOT":0},{"OBJECT_NAME":"STARLINK-32190","OBJECT_ID":"2024-133T","EPOCH":"2025-08-20T04:54:58.455072","MEAN_MOTION":15.30206866,"ECCENTRICITY":0.0001216,"INCLINATION":53.1599,"RA_OF_ASC_NODE":152.8266,"ARG_OF_PERICENTER":82.2832,"MEAN_ANOMALY":277.8306,"EPHEMERIS_TYPE":0,"CLASSIFICATION_TYPE":"U","NORAD_CAT_ID":60318,"ELEMENT_SET_NO":999,"REV_AT_EPOCH":6088,"BSTAR":6.2216e-5,"MEAN_MOTION_DOT":1.484e-5,"MEAN_MOTION_DDOT":0},{"OBJECT_NAME":"STARLINK-32182","OBJECT_ID":"2024-133U","EPOCH":"2025-08-20T02:02:04.440768","MEAN_MOTION":15.30197467,"ECCENTRICITY":0.0001258,"INCLINATION":53.1604,"RA_OF_ASC_NODE":153.5045,"ARG_OF_PERICENTER":88.1109,"MEAN_ANOMALY":272.0036,"EPHEMERIS_TYPE":0,"CLASSIFICATION_TYPE":"U","NORAD_CAT_ID":60319,"ELEMENT_SET_NO":999,"REV_AT_EPOCH":6082,"BSTAR":2.087e-5,"MEAN_MOTION_DOT":2.59e-6,"MEAN_MOTION_DDOT":0},{"OBJECT_NAME":"STARLINK-32199","OBJECT_ID":"2024-133V","EPOCH":"2025-08-20T04:59:32.663616","MEAN_MOTION":15.30195335,"ECCENTRICITY":0.0001196,"INCLINATION":53.1597,"RA_OF_ASC_NODE":152.8473,"ARG_OF_PERICENTER":77.1135,"MEAN_ANOMALY":282.9999,"EPHEMERIS_TYPE":0,"CLASSIFICATION_TYPE":"U","NORAD_CAT_ID":60320,"ELEMENT_SET_NO":999,"REV_AT_EPOCH":6083,"BSTAR":3.8661e-5,"MEAN_MOTION_DOT":7.86e-6,"MEAN_MOTION_DDOT":0},{"OBJECT_NAME":"STARLINK-32198","OBJECT_ID":"2024-133W","EPOCH":"2025-08-20T11:29:26.301696","MEAN_MOTION":15.30190429,"ECCENTRICITY":0.0001159,"INCLINATION":53.16,"RA_OF_ASC_NODE":151.6932,"ARG_OF_PERICENTER":85.2845,"MEAN_ANOMALY":274.8288,"EPHEMERIS_TYPE":0,"CLASSIFICATION_TYPE":"U","NORAD_CAT_ID":60321,"ELEMENT_SET_NO":999,"REV_AT_EPOCH":6092,"BSTAR":7.4936e-6,"MEAN_MOTION_DOT":-1.37e-6,"MEAN_MOTION_DDOT":0},{"OBJECT_NAME":"STARLINK-31745","OBJECT_ID":"2024-136A","EPOCH":"2025-08-20T11:28:25.684320","MEAN_MOTION":15.30188218,"ECCENTRICITY":0.0001177,"INCLINATION":53.1605,"RA_OF_ASC_NODE":290.5994,"ARG_OF_PERICENTER":91.3171,"MEAN_ANOMALY":268.7965,"EPHEMERIS_TYPE":0,"CLASSIFICATION_TYPE":"U","NORAD_CAT_ID":60329,"ELEMENT_SET_NO":999,"REV_AT_EPOCH":6005,"BSTAR":2.7125e-6,"MEAN_MOTION_DOT":-2.79e-6,"MEAN_MOTION_DDOT":0},{"OBJECT_NAME":"STARLINK-32153","OBJECT_ID":"2024-136B","EPOCH":"2025-08-20T03:36:38.407392","MEAN_MOTION":15.30190522,"ECCENTRICITY":0.0001146,"INCLINATION":53.1608,"RA_OF_ASC_NODE":292.1089,"ARG_OF_PERICENTER":92.1326,"MEAN_ANOMALY":267.9806,"EPHEMERIS_TYPE":0,"CLASSIFICATION_TYPE":"U","NORAD_CAT_ID":60330,"ELEMENT_SET_NO":999,"REV_AT_EPOCH":5986,"BSTAR":2.7044e-5,"MEAN_MOTION_DOT":4.42e-6,"MEAN_MOTION_DDOT":0},{"OBJECT_NAME":"STARLINK-32203","OBJECT_ID":"2024-136C","EPOCH":"2025-08-20T07:27:15.569568","MEAN_MOTION":15.30193054,"ECCENTRICITY":0.0001088,"INCLINATION":53.1594,"RA_OF_ASC_NODE":281.03,"ARG_OF_PERICENTER":91.6612,"MEAN_ANOMALY":268.4514,"EPHEMERIS_TYPE":0,"CLASSIFICATION_TYPE":"U","NORAD_CAT_ID":60331,"ELEMENT_SET_NO":999,"REV_AT_EPOCH":6003,"BSTAR":2.4879e-5,"MEAN_MOTION_DOT":3.78e-6,"MEAN_MOTION_DDOT":0}]
