STARLINK-11223 [DTC]    
1 60307U 24133G   25232.53981311 -.00001199  00000+0 -50386-5 0  9992
2 60307  53.1580  57.6418 0000928  77.9173 282.1948 15.69707570 62126
STARLINK-11192 [DTC]    
1 60308U 24133H   25232.54471755  .00000168  00000+0  62478-5 0  9998
2 60308  53.1600  57.6737 0000954  74.1705 285.9418 15.69705340 62196
STARLINK-11213 [DTC]    
1 60309U 24133J   25232.53490955 -.00001638  00000+0 -86538-5 0  9999
2 60309  53.1599  57.6102 0002310 112.0131 248.1133 15.69687819 62031
STARLINK-11200 [DTC]    
1 60310U 24133K   25231.82963770 -.00001228  00000+0 -52856-5 0  9993
2 60310  53.1593  61.0296 0000708  69.9210 290.1884 15.69708429 62038
STARLINK-11206 [DTC]    
1 60312U 24133M   25232.52028893  .00001245  00000+0  15132-4 0  9993
2 60312  53.1586  58.2442 0001073  86.0995 274.0146 15.69712339 62104
STARLINK-11205 [DTC]    
1 60313U 24133N   25232.51538578  .00000260  00000+0  70011-5 0  9993
2 60313  53.1589  58.2106 0000920  47.5279 312.5816 15.69702682 62025
STARLINK-32191          
1 60314U 24133P   25232.07105225  .00000789  00000+0  38757-4 0  9990
2 60314  53.1600 153.4140 0001197  86.4701 273.6436 15.30199143 60837
STARLINK-32194          
1 60315U 24133Q   25232.47772146 -.00000529  00000+0 -57531-5 0  9993
2 60315  53.1608 151.6901 0001249  79.8794 280.2347 15.30192228 60873
STARLINK-32192          
1 60316U 24133R   25232.50610027 -.00000290  00000+0  23279-5 0  9993
2 60316  53.1608 151.1553 0001424  84.9422 275.1741 15.30189762 60939
STARLINK-32189          
1 60317U 24133S   25231.95309164 -.00000821  00000+0 -15607-4 0  9995
2 60317  53.1595 154.1011 0001160  94.8267 265.2867 15.30194449 60848
STARLINK-32190          
1 60318U 24133T   25232.20484323  .00001484  00000+0  62216-4 0  9998
2 60318  53.1599 152.8266 0001216  82.2832 277.8306 15.30206866 60889
STARLINK-32182          
1 60319U 24133U   25232.08477362  .00000259  00000+0  20870-4 0  9999
2 60319  53.1604 153.5045 0001258  88.1109 272.0036 15.30197467 60825
STARLINK-32199          
1 60320U 24133V   25232.20801694  .00000786  00000+0  38661-4 0  9996
2 60320  53.1597 152.8473 0001196  77.1135 282.9999 15.30195335 60834
STARLINK-32198          
1 60321U 24133W   25232.47877664 -.00000137  00000+0  74936-5 0  9993
2 60321  53.1600 151.6932 0001159  85.2845 274.8288 15.30190429 60924
STARLINK-31745          
1 60329U 24136A   25232.47807505 -.00000279  00000+0  27125-5 0  9996
2 60329  53.1605 290.5994 0001177  91.3171 268.7965 15.30188218 60059
STARLINK-32153          
1 60330U 24136B   25232.15044453  .00000442  00000+0  27044-4 0  9998
2 60330  53.1608 292.1089 0001146  92.1326 267.9806 15.30190522 59867
STARLINK-32203          
1 60331U 24136C   25232.31059687  .00000378  00000+0  24879-4 0  9993
2 60331  53.1594 281.0300 0001088  91.6612 268.4514 15.30193054 60038
